[
    {
        "CCSDS_OMM_VERS": "3.0",
        "COMMENT": "GENERATED VIA SPACE-TRACK.ORG API",
        "CREATION_DATE": "2025-05-02T17:35:09",
        "ORIGINATOR": "18 SPCS",
        "OBJECT_NAME": "COSMOS 2501 (GLONASS)",
        "OBJECT_ID": "2014-075A",
        "CENTER_NAME": "EARTH",
        "REF_FRAME": "TEME",
        "TIME_SYSTEM": "UTC",
        "MEAN_ELEMENT_THEORY": "SGP4",
        "EPOCH": "2025-05-01T18:14:48.691392",
        "MEAN_MOTION": "2.13101373",
        "ECCENTRICITY": "0.00210100",
        "INCLINATION": "63.6141",
        "RA_OF_ASC_NODE": "204.6186",
        "ARG_OF_PERICENTER": "209.2064",
        "MEAN_ANOMALY": "150.7317",
        "EPHEMERIS_TYPE": "0",
        "CLASSIFICATION_TYPE": "U",
        "NORAD_CAT_ID": "40315",
        "ELEMENT_SET_NO": "999",
        "REV_AT_EPOCH": "8108",
        "BSTAR": "0.00000000000000",
        "MEAN_MOTION_DOT": "0.00000007",
        "MEAN_MOTION_DDOT": "0.0000000000000",
        "SEMIMAJOR_AXIS": "25508.074",
        "PERIOD": "675.735",
        "APOAPSIS": "19183.532",
        "PERIAPSIS": "19076.347",
        "OBJECT_TYPE": "PAYLOAD",
        "RCS_SIZE": "LARGE",
        "COUNTRY_CODE": "CIS",
        "LAUNCH_DATE": "2014-11-30",
        "SITE": "PKMTR",
        "DECAY_DATE": null,
        "FILE": "4716995",
        "GP_ID": "286677642",
        "TLE_LINE0": "0 COSMOS 2501 (GLONASS)",
        "TLE_LINE1": "1 40315U 14075A   25121.76028578  .00000007  00000-0  00000-0 0  9991",
        "TLE_LINE2": "2 40315  63.6141 204.6186 0021010 209.2064 150.7317  2.13101373 81082"
    }
]